[{"OBJECT_NAME":"STARLINK-2483","OBJECT_ID":"2021-027BA","EPOCH":"2026-03-09T12:46:42.199968","MEAN_MOTION":15.30208756,"ECCENTRICITY":0.00012263,"INCLINATION":53.161,"RA_OF_ASC_NODE":166.3833,"ARG_OF_PERICENTER":92.9717,"MEAN_ANOMALY":267.1425,"EPHEMERIS_TYPE":0,"CLASSIFICATION_TYPE":"U","NORAD_CAT_ID":48140,"ELEMENT_SET_NO":999,"REV_AT_EPOCH":27248,"BSTAR":0.0001420962,"MEAN_MOTION_DOT":3.853e-5,"MEAN_MOTION_DDOT":0},{"OBJECT_NAME":"TIANMU-1 07","OBJECT_ID":"2023-101A","EPOCH":"2026-03-06T13:47:20.454720","MEAN_MOTION":15.29118809,"ECCENTRICITY":0.00046097,"INCLINATION":97.2728,"RA_OF_ASC_NODE":118.5929,"ARG_OF_PERICENTER":142.4105,"MEAN_ANOMALY":217.7458,"EPHEMERIS_TYPE":0,"CLASSIFICATION_TYPE":"U","NORAD_CAT_ID":57399,"ELEMENT_SET_NO":999,"REV_AT_EPOCH":14596,"BSTAR":0.00029794732,"MEAN_MOTION_DOT":8.352e-5,"MEAN_MOTION_DDOT":0}]
