STARLINK-2483           
1 48140U 21027BA  26068.53243287  .00003853  00000+0  14210-3 0  9994
2 48140  53.1610 166.3833 0001226  92.9717 267.1425 15.30208756272488
TIANMU-1 07             
1 57399U 23101A   26065.57454230  .00008352  00000+0  29795-3 0  9991
2 57399  97.2728 118.5929 0004609 142.4105 217.7458 15.29118809145964
